{
  "norad_id": 65906,
  "name": "STARLINK-35385",
  "history": [
    {
      "epoch": "2026-03-28T19:31:29.849088Z",
      "apogee_km": 476.1928784220054,
      "perigee_km": 474.2695491664863,
      "latitude_deg": -1.9292940542086245e-05,
      "longitude_deg": 163.30861699759916,
      "height_km": 476.3232970463388,
      "semi_major_axis_km": 6853.368213794245,
      "eccentricity": 0.00014032,
      "inclination_deg": 53.1592,
      "raan_deg": 282.4116,
      "arg_perigee_deg": 101.653,
      "mean_anomaly_deg": 258.4628,
      "mean_motion_rev_day": 15.30194593
    },
    {
      "epoch": "2026-03-30T06:00:38.323584Z",
      "apogee_km": 475.8798523605237,
      "perigee_km": 474.3204667772352,
      "latitude_deg": -8.441729438993927e-06,
      "longitude_deg": -2.066661447496183,
      "height_km": 475.78596654307626,
      "semi_major_axis_km": 6853.237159568879,
      "eccentricity": 0.00011377,
      "inclination_deg": 53.1586,
      "raan_deg": 275.7379,
      "arg_perigee_deg": 74.1938,
      "mean_anomaly_deg": 285.9188,
      "mean_motion_rev_day": 15.30238486
    },
    {
      "epoch": "2026-03-30T12:16:51.369024Z",
      "apogee_km": 476.85136818446335,
      "perigee_km": 473.4466556937314,
      "latitude_deg": 5.472869259797932e-05,
      "longitude_deg": -97.59438175380784,
      "height_km": 476.29550554484877,
      "semi_major_axis_km": 6853.286011939097,
      "eccentricity": 0.0002484,
      "inclination_deg": 53.1578,
      "raan_deg": 274.522,
      "arg_perigee_deg": 98.4578,
      "mean_anomaly_deg": 261.6705,
      "mean_motion_rev_day": 15.30222124
    },
    {
      "epoch": "2026-03-30T21:41:10.335840Z",
      "apogee_km": 475.9491230084286,
      "perigee_km": 474.420009900522,
      "latitude_deg": 4.696137581003657e-05,
      "longitude_deg": 119.12182385566572,
      "height_km": 475.9157279618754,
      "semi_major_axis_km": 6853.321566454475,
      "eccentricity": 0.00011156,
      "inclination_deg": 53.1589,
      "raan_deg": 272.7035,
      "arg_perigee_deg": 77.3801,
      "mean_anomaly_deg": 282.7325,
      "mean_motion_rev_day": 15.30210216
    },
    {
      "epoch": "2026-03-31T18:03:51.739488Z",
      "apogee_km": 475.4293988280933,
      "perigee_km": 475.02779160421414,
      "latitude_deg": 7.014980991868544e-05,
      "longitude_deg": 168.66762548858887,
      "height_km": 475.9787588800968,
      "semi_major_axis_km": 6853.365595216153,
      "eccentricity": 2.93e-05,
      "inclination_deg": 53.1608,
      "raan_deg": 268.7587,
      "arg_perigee_deg": 41.9332,
      "mean_anomaly_deg": 318.1692,
      "mean_motion_rev_day": 15.3019547
    },
    {
      "epoch": "2026-04-01T11:18:26.845056Z",
      "apogee_km": 475.3954477242869,
      "perigee_km": 474.96368878048725,
      "latitude_deg": 3.2087150730043705e-06,
      "longitude_deg": -94.02414498868066,
      "height_km": 475.9950281854188,
      "semi_major_axis_km": 6853.316568252387,
      "eccentricity": 3.15e-05,
      "inclination_deg": 53.1594,
      "raan_deg": 265.4214,
      "arg_perigee_deg": 67.149,
      "mean_anomaly_deg": 292.9544,
      "mean_motion_rev_day": 15.3021189
    },
    {
      "epoch": "2026-04-02T20:13:33.491136Z",
      "apogee_km": 475.2232738469511,
      "perigee_km": 475.07387222145917,
      "latitude_deg": 8.707319716833953e-06,
      "longitude_deg": 124.47475306570139,
      "height_km": 476.1096698358437,
      "semi_major_axis_km": 6853.285573034205,
      "eccentricity": 1.09e-05,
      "inclination_deg": 53.1612,
      "raan_deg": 259.0499,
      "arg_perigee_deg": 145.1866,
      "mean_anomaly_deg": 214.9142,
      "mean_motion_rev_day": 15.30222271
    },
    {
      "epoch": "2026-04-02T20:13:33.492000Z",
      "apogee_km": 475.22306824838506,
      "perigee_km": 475.074077820027,
      "latitude_deg": 1.0291089251918685e-05,
      "longitude_deg": 124.47475063576984,
      "height_km": 476.1095010389428,
      "semi_major_axis_km": 6853.285573034205,
      "eccentricity": 1.087e-05,
      "inclination_deg": 53.1612,
      "raan_deg": 259.0499,
      "arg_perigee_deg": 145.1866,
      "mean_anomaly_deg": 214.9142,
      "mean_motion_rev_day": 15.30222271
    },
    {
      "epoch": "2026-04-03T19:44:22.081920Z",
      "apogee_km": 476.0317114895661,
      "perigee_km": 474.36223933315614,
      "latitude_deg": -2.0357297444556648e-05,
      "longitude_deg": 126.25790483173148,
      "height_km": 476.19633207011344,
      "semi_major_axis_km": 6853.33397541136,
      "eccentricity": 0.0001218,
      "inclination_deg": 53.1574,
      "raan_deg": 254.5012,
      "arg_perigee_deg": 96.9824,
      "mean_anomaly_deg": 263.1315,
      "mean_motion_rev_day": 15.3020606
    },
    {
      "epoch": "2026-04-04T19:15:10.204416Z",
      "apogee_km": 475.86991813259374,
      "perigee_km": 474.5760037719647,
      "latitude_deg": -1.7471579167018217e-05,
      "longitude_deg": 128.0417361218232,
      "height_km": 476.19253223757266,
      "semi_major_axis_km": 6853.359960952279,
      "eccentricity": 9.44e-05,
      "inclination_deg": 53.1573,
      "raan_deg": 249.9512,
      "arg_perigee_deg": 96.3308,
      "mean_anomaly_deg": 263.78,
      "mean_motion_rev_day": 15.30197357
    },
    {
      "epoch": "2026-04-05T14:03:48.568320Z",
      "apogee_km": 475.89336084060596,
      "perigee_km": 474.442379133533,
      "latitude_deg": 8.456709046739535e-06,
      "longitude_deg": -158.53222161397352,
      "height_km": 476.20191227142874,
      "semi_major_axis_km": 6853.30486998707,
      "eccentricity": 0.00010586,
      "inclination_deg": 53.1579,
      "raan_deg": 246.3096,
      "arg_perigee_deg": 100.7948,
      "mean_anomaly_deg": 259.3172,
      "mean_motion_rev_day": 15.30215808
    },
    {
      "epoch": "2026-04-05T17:11:54.876768Z",
      "apogee_km": 475.7266305352523,
      "perigee_km": 474.61913565814393,
      "latitude_deg": -3.2983534899217725e-05,
      "longitude_deg": 153.70600868072202,
      "height_km": 476.2306436749458,
      "semi_major_axis_km": 6853.309883096697,
      "eccentricity": 8.08e-05,
      "inclination_deg": 53.1574,
      "raan_deg": 245.7029,
      "arg_perigee_deg": 106.7183,
      "mean_anomaly_deg": 253.3906,
      "mean_motion_rev_day": 15.30214129
    },
    {
      "epoch": "2026-04-05T17:11:54.877632Z",
      "apogee_km": 475.7265620021526,
      "perigee_km": 474.6192041912418,
      "latitude_deg": 4.8431058872682084e-05,
      "longitude_deg": 153.70606573387482,
      "height_km": 476.23061258809906,
      "semi_major_axis_km": 6853.309883096697,
      "eccentricity": 8.079e-05,
      "inclination_deg": 53.1574,
      "raan_deg": 245.7029,
      "arg_perigee_deg": 106.7183,
      "mean_anomaly_deg": 253.3907,
      "mean_motion_rev_day": 15.30214129
    },
    {
      "epoch": "2026-04-07T19:21:36.994752Z",
      "apogee_km": 475.71738855635886,
      "perigee_km": 474.66882904971135,
      "latitude_deg": -2.1826072211480566e-06,
      "longitude_deg": 109.51236688199555,
      "height_km": 476.1369793950309,
      "semi_major_axis_km": 6853.330108803035,
      "eccentricity": 7.65e-05,
      "inclination_deg": 53.1569,
      "raan_deg": 235.9948,
      "arg_perigee_deg": 94.973,
      "mean_anomaly_deg": 265.1358,
      "mean_motion_rev_day": 15.30207355
    },
    {
      "epoch": "2026-04-08T15:44:18.676608Z",
      "apogee_km": 476.0303782570236,
      "perigee_km": 474.4202493150233,
      "latitude_deg": -2.9894267520849564e-05,
      "longitude_deg": 159.05696445966473,
      "height_km": 475.9575575589762,
      "semi_major_axis_km": 6853.362313786023,
      "eccentricity": 0.00011747,
      "inclination_deg": 53.1576,
      "raan_deg": 232.05,
      "arg_perigee_deg": 78.1192,
      "mean_anomaly_deg": 281.994,
      "mean_motion_rev_day": 15.30196569
    },
    {
      "epoch": "2026-04-09T15:15:06.594336Z",
      "apogee_km": 476.52185401882343,
      "perigee_km": 473.8463174669496,
      "latitude_deg": 5.455331846725638e-05,
      "longitude_deg": 160.84050992331237,
      "height_km": 476.0558981457793,
      "semi_major_axis_km": 6853.321085742886,
      "eccentricity": 0.0001952,
      "inclination_deg": 53.157,
      "raan_deg": 227.4988,
      "arg_perigee_deg": 88.9305,
      "mean_anomaly_deg": 271.192,
      "mean_motion_rev_day": 15.30210377
    },
    {
      "epoch": "2026-04-10T08:29:41.610048Z",
      "apogee_km": 475.84772960299233,
      "perigee_km": 474.496257069507,
      "latitude_deg": -3.5071838541269255e-05,
      "longitude_deg": -101.85120487024653,
      "height_km": 475.77735296444956,
      "semi_major_axis_km": 6853.308993336249,
      "eccentricity": 9.86e-05,
      "inclination_deg": 53.1579,
      "raan_deg": 224.1612,
      "arg_perigee_deg": 64.3019,
      "mean_anomaly_deg": 295.8083,
      "mean_motion_rev_day": 15.30214427
    },
    {
      "epoch": "2026-04-11T18:58:52.311936Z",
      "apogee_km": 476.1017259383316,
      "perigee_km": 474.3774163930266,
      "latitude_deg": 3.9915396489522746e-05,
      "longitude_deg": 92.76435476554964,
      "height_km": 476.0212636424741,
      "semi_major_axis_km": 6853.376571165679,
      "eccentricity": 0.0001258,
      "inclination_deg": 53.1583,
      "raan_deg": 217.4876,
      "arg_perigee_deg": 82.2525,
      "mean_anomaly_deg": 277.8619,
      "mean_motion_rev_day": 15.30191794
    },
    {
      "epoch": "2026-04-13T07:02:05.729568Z",
      "apogee_km": 476.12370981715594,
      "perigee_km": 474.2892068402307,
      "latitude_deg": 2.520333321190252e-05,
      "longitude_deg": -96.5012376183728,
      "height_km": 476.1705040234516,
      "semi_major_axis_km": 6853.3434583286935,
      "eccentricity": 0.00013384,
      "inclination_deg": 53.1584,
      "raan_deg": 210.5086,
      "arg_perigee_deg": 94.141,
      "mean_anomaly_deg": 265.9744,
      "mean_motion_rev_day": 15.30202884
    }
  ]
}